STARLINK-30375          
1 57732U 23131A   26063.16670139  .01096271  00000+0  43004-1 0  9991
2 57732  43.0017 188.5018 0001394 274.7913 299.8786 15.22413013  5772
STARLINK-30310          
1 57733U 23131B   26062.40655766 -.00000116  00000+0  64833-5 0  9997
2 57733  43.0028 205.5321 0001311 264.9142  95.1551 15.02534457138998
STARLINK-30365          
1 57734U 23131C   26062.37670301 -.00000159  00000+0  32936-5 0  9992
2 57734  43.0006 206.1359 0000942 247.0511 113.0232 15.02534515138973
STARLINK-30371          
1 57735U 23131D   26062.41987451 -.00000125  00000+0  58335-5 0  9999
2 57735  43.0016 205.6306 0001326 247.4218 112.6484 15.02536081138981
STARLINK-30352          
1 57736U 23131E   26062.40988496  .00000296  00000+0  37014-4 0  9997
2 57736  43.0033 205.5575 0001809 277.4560  82.6077 15.02535701138989
STARLINK-30344          
1 57737U 23131F   26062.43208326  .00000396  00000+0  44404-4 0  9990
2 57737  43.0023 205.7316 0001497 268.9752  91.0919 15.02536153138986
STARLINK-30351          
1 57738U 23131G   26063.16670139  .01201200  00000+0  76911-1 0  9990
2 57738  43.0007 201.9877 0001381 260.8799  11.3563 15.05122865  5812
STARLINK-30242          
1 57739U 23131H   26063.16670139  .00053779  00000+0  20002-2 0  9997
2 57739  43.0003 174.8079 0001506 263.5165 254.9964 15.26736366  5569
STARLINK-30331          
1 57740U 23131J   26063.19050779  .00001967  00000+0  80968-4 0  9995
2 57740  43.0004 130.4553 0001362 266.1968  93.8728 15.27588078139930
STARLINK-30364          
1 57741U 23131K   26062.43652403  .00000126  00000+0  24408-4 0  9997
2 57741  43.0010 205.7600 0001254 279.4233  80.6468 15.02536752138983
STARLINK-30308          
1 57742U 23131L   26062.44984693 -.00000330  00000+0 -93242-5 0  9990
2 57742  43.0033 205.8569 0001750 254.0138 106.0512 15.02534959138999
STARLINK-30361          
1 57743U 23131M   26062.43319868 -.00000564  00000+0 -26682-4 0  9998
2 57743  43.0023 205.7332 0001285 257.6898 102.3800 15.02531543138985
STARLINK-30363          
1 57744U 23131N   26063.16670139  .00981683  00000+0  43046-1 0  9999
2 57744  43.0009 188.5018 0001465 238.5140 335.1316 15.18431516  5816
STARLINK-30362          
1 57745U 23131P   26062.42986763 -.00000078  00000+0  92995-5 0  9993
2 57745  43.0040 205.7092 0001277 245.7530 114.3179 15.02534476138981
STARLINK-30350          
1 57746U 23131Q   26063.16670139  .00023903  00000+0  89771-3 0  9990
2 57746  43.0016 200.2236 0001521 281.6775  11.4691 15.26746528  5817
STARLINK-30307          
1 57747U 23131R   26062.43097451  .00002002  00000+0  16324-3 0  9991
2 57747  43.0032 205.7172 0001376 266.6890  93.3795 15.02538997138986
