[{"OBJECT_NAME":"STARLINK-30375","OBJECT_ID":"2023-131A","EPOCH":"2026-03-04T04:00:03.000096","MEAN_MOTION":15.22413013,"ECCENTRICITY":0.0001394,"INCLINATION":43.0017,"RA_OF_ASC_NODE":188.5018,"ARG_OF_PERICENTER":274.7913,"MEAN_ANOMALY":299.8786,"EPHEMERIS_TYPE":0,"CLASSIFICATION_TYPE":"U","NORAD_CAT_ID":57732,"ELEMENT_SET_NO":999,"REV_AT_EPOCH":577,"BSTAR":0.043004,"MEAN_MOTION_DOT":0.01096271,"MEAN_MOTION_DDOT":0},{"OBJECT_NAME":"STARLINK-30310","OBJECT_ID":"2023-131B","EPOCH":"2026-03-03T09:45:26.581824","MEAN_MOTION":15.02534457,"ECCENTRICITY":0.00013118,"INCLINATION":43.0028,"RA_OF_ASC_NODE":205.5321,"ARG_OF_PERICENTER":264.9142,"MEAN_ANOMALY":95.1551,"EPHEMERIS_TYPE":0,"CLASSIFICATION_TYPE":"U","NORAD_CAT_ID":57733,"ELEMENT_SET_NO":999,"REV_AT_EPOCH":13899,"BSTAR":6.483339e-6,"MEAN_MOTION_DOT":-1.16e-6,"MEAN_MOTION_DDOT":0},{"OBJECT_NAME":"STARLINK-30365","OBJECT_ID":"2023-131C","EPOCH":"2026-03-03T09:02:27.140064","MEAN_MOTION":15.02534515,"ECCENTRICITY":9.421e-5,"INCLINATION":43.0006,"RA_OF_ASC_NODE":206.1359,"ARG_OF_PERICENTER":247.0511,"MEAN_ANOMALY":113.0232,"EPHEMERIS_TYPE":0,"CLASSIFICATION_TYPE":"U","NORAD_CAT_ID":57734,"ELEMENT_SET_NO":999,"REV_AT_EPOCH":13897,"BSTAR":3.293613e-6,"MEAN_MOTION_DOT":-1.59e-6,"MEAN_MOTION_DDOT":0},{"OBJECT_NAME":"STARLINK-30371","OBJECT_ID":"2023-131D","EPOCH":"2026-03-03T10:04:37.157664","MEAN_MOTION":15.02536081,"ECCENTRICITY":0.00013268,"INCLINATION":43.0016,"RA_OF_ASC_NODE":205.6306,"ARG_OF_PERICENTER":247.4218,"MEAN_ANOMALY":112.6484,"EPHEMERIS_TYPE":0,"CLASSIFICATION_TYPE":"U","NORAD_CAT_ID":57735,"ELEMENT_SET_NO":999,"REV_AT_EPOCH":13898,"BSTAR":5.833484e-6,"MEAN_MOTION_DOT":-1.25e-6,"MEAN_MOTION_DDOT":0},{"OBJECT_NAME":"STARLINK-30352","OBJECT_ID":"2023-131E","EPOCH":"2026-03-03T09:50:14.060544","MEAN_MOTION":15.02535701,"ECCENTRICITY":0.00018094,"INCLINATION":43.0033,"RA_OF_ASC_NODE":205.5575,"ARG_OF_PERICENTER":277.456,"MEAN_ANOMALY":82.6077,"EPHEMERIS_TYPE":0,"CLASSIFICATION_TYPE":"U","NORAD_CAT_ID":57736,"ELEMENT_SET_NO":999,"REV_AT_EPOCH":13898,"BSTAR":3.7013988e-5,"MEAN_MOTION_DOT":2.96e-6,"MEAN_MOTION_DDOT":0},{"OBJECT_NAME":"STARLINK-30344","OBJECT_ID":"2023-131F","EPOCH":"2026-03-03T10:22:11.993664","MEAN_MOTION":15.02536153,"ECCENTRICITY":0.00014977,"INCLINATION":43.0023,"RA_OF_ASC_NODE":205.7316,"ARG_OF_PERICENTER":268.9752,"MEAN_ANOMALY":91.0919,"EPHEMERIS_TYPE":0,"CLASSIFICATION_TYPE":"U","NORAD_CAT_ID":57737,"ELEMENT_SET_NO":999,"REV_AT_EPOCH":13898,"BSTAR":4.4404157e-5,"MEAN_MOTION_DOT":3.96e-6,"MEAN_MOTION_DDOT":0},{"OBJECT_NAME":"STARLINK-30351","OBJECT_ID":"2023-131G","EPOCH":"2026-03-04T04:00:03.000096","MEAN_MOTION":15.05122865,"ECCENTRICITY":0.0001381,"INCLINATION":43.0007,"RA_OF_ASC_NODE":201.9877,"ARG_OF_PERICENTER":260.8799,"MEAN_ANOMALY":11.3563,"EPHEMERIS_TYPE":0,"CLASSIFICATION_TYPE":"U","NORAD_CAT_ID":57738,"ELEMENT_SET_NO":999,"REV_AT_EPOCH":581,"BSTAR":0.076911,"MEAN_MOTION_DOT":0.012012,"MEAN_MOTION_DDOT":0},{"OBJECT_NAME":"STARLINK-30242","OBJECT_ID":"2023-131H","EPOCH":"2026-03-04T04:00:03.000096","MEAN_MOTION":15.26736366,"ECCENTRICITY":0.0001506,"INCLINATION":43.0003,"RA_OF_ASC_NODE":174.8079,"ARG_OF_PERICENTER":263.5165,"MEAN_ANOMALY":254.9964,"EPHEMERIS_TYPE":0,"CLASSIFICATION_TYPE":"U","NORAD_CAT_ID":57739,"ELEMENT_SET_NO":999,"REV_AT_EPOCH":556,"BSTAR":0.0020002,"MEAN_MOTION_DOT":0.00053779,"MEAN_MOTION_DDOT":0},{"OBJECT_NAME":"STARLINK-30331","OBJECT_ID":"2023-131J","EPOCH":"2026-03-04T04:34:19.873056","MEAN_MOTION":15.27588078,"ECCENTRICITY":0.0001362,"INCLINATION":43.0004,"RA_OF_ASC_NODE":130.4553,"ARG_OF_PERICENTER":266.1968,"MEAN_ANOMALY":93.8728,"EPHEMERIS_TYPE":0,"CLASSIFICATION_TYPE":"U","NORAD_CAT_ID":57740,"ELEMENT_SET_NO":999,"REV_AT_EPOCH":13993,"BSTAR":8.0968e-5,"MEAN_MOTION_DOT":1.967e-5,"MEAN_MOTION_DDOT":0},{"OBJECT_NAME":"STARLINK-30364","OBJECT_ID":"2023-131K","EPOCH":"2026-03-03T10:28:35.676192","MEAN_MOTION":15.02536752,"ECCENTRICITY":0.00012549,"INCLINATION":43.001,"RA_OF_ASC_NODE":205.76,"ARG_OF_PERICENTER":279.4233,"MEAN_ANOMALY":80.6468,"EPHEMERIS_TYPE":0,"CLASSIFICATION_TYPE":"U","NORAD_CAT_ID":57741,"ELEMENT_SET_NO":999,"REV_AT_EPOCH":13898,"BSTAR":2.4408372e-5,"MEAN_MOTION_DOT":1.26e-6,"MEAN_MOTION_DDOT":0},{"OBJECT_NAME":"STARLINK-30308","OBJECT_ID":"2023-131L","EPOCH":"2026-03-03T10:47:46.774752","MEAN_MOTION":15.02534959,"ECCENTRICITY":0.00017509,"INCLINATION":43.0033,"RA_OF_ASC_NODE":205.8569,"ARG_OF_PERICENTER":254.0138,"MEAN_ANOMALY":106.0512,"EPHEMERIS_TYPE":0,"CLASSIFICATION_TYPE":"U","NORAD_CAT_ID":57742,"ELEMENT_SET_NO":999,"REV_AT_EPOCH":13899,"BSTAR":-9.324204e-6,"MEAN_MOTION_DOT":-3.3e-6,"MEAN_MOTION_DDOT":0},{"OBJECT_NAME":"STARLINK-30361","OBJECT_ID":"2023-131M","EPOCH":"2026-03-03T10:23:48.365952","MEAN_MOTION":15.02531543,"ECCENTRICITY":0.00012852,"INCLINATION":43.0023,"RA_OF_ASC_NODE":205.7332,"ARG_OF_PERICENTER":257.6898,"MEAN_ANOMALY":102.38,"EPHEMERIS_TYPE":0,"CLASSIFICATION_TYPE":"U","NORAD_CAT_ID":57743,"ELEMENT_SET_NO":999,"REV_AT_EPOCH":13898,"BSTAR":-2.6682471e-5,"MEAN_MOTION_DOT":-5.64e-6,"MEAN_MOTION_DDOT":0},{"OBJECT_NAME":"STARLINK-30363","OBJECT_ID":"2023-131N","EPOCH":"2026-03-04T04:00:03.000096","MEAN_MOTION":15.18431516,"ECCENTRICITY":0.0001465,"INCLINATION":43.0009,"RA_OF_ASC_NODE":188.5018,"ARG_OF_PERICENTER":238.514,"MEAN_ANOMALY":335.1316,"EPHEMERIS_TYPE":0,"CLASSIFICATION_TYPE":"U","NORAD_CAT_ID":57744,"ELEMENT_SET_NO":999,"REV_AT_EPOCH":581,"BSTAR":0.043046,"MEAN_MOTION_DOT":0.00981683,"MEAN_MOTION_DDOT":0},{"OBJECT_NAME":"STARLINK-30362","OBJECT_ID":"2023-131P","EPOCH":"2026-03-03T10:19:00.563232","MEAN_MOTION":15.02534476,"ECCENTRICITY":0.00012772,"INCLINATION":43.004,"RA_OF_ASC_NODE":205.7092,"ARG_OF_PERICENTER":245.753,"MEAN_ANOMALY":114.3179,"EPHEMERIS_TYPE":0,"CLASSIFICATION_TYPE":"U","NORAD_CAT_ID":57745,"ELEMENT_SET_NO":999,"REV_AT_EPOCH":13898,"BSTAR":9.299468e-6,"MEAN_MOTION_DOT":-7.8e-7,"MEAN_MOTION_DDOT":0},{"OBJECT_NAME":"STARLINK-30350","OBJECT_ID":"2023-131Q","EPOCH":"2026-03-04T04:00:03.000096","MEAN_MOTION":15.26746528,"ECCENTRICITY":0.0001521,"INCLINATION":43.0016,"RA_OF_ASC_NODE":200.2236,"ARG_OF_PERICENTER":281.6775,"MEAN_ANOMALY":11.4691,"EPHEMERIS_TYPE":0,"CLASSIFICATION_TYPE":"U","NORAD_CAT_ID":57746,"ELEMENT_SET_NO":999,"REV_AT_EPOCH":581,"BSTAR":0.00089771,"MEAN_MOTION_DOT":0.00023903,"MEAN_MOTION_DDOT":0},{"OBJECT_NAME":"STARLINK-30307","OBJECT_ID":"2023-131R","EPOCH":"2026-03-03T10:20:36.197664","MEAN_MOTION":15.02538997,"ECCENTRICITY":0.00013761,"INCLINATION":43.0032,"RA_OF_ASC_NODE":205.7172,"ARG_OF_PERICENTER":266.689,"MEAN_ANOMALY":93.3795,"EPHEMERIS_TYPE":0,"CLASSIFICATION_TYPE":"U","NORAD_CAT_ID":57747,"ELEMENT_SET_NO":999,"REV_AT_EPOCH":13898,"BSTAR":0.00016324034,"MEAN_MOTION_DOT":2.002e-5,"MEAN_MOTION_DDOT":0}]
